STARLINK-1668_new
1 16536C 20070E   21326.13597668  .00048431  00000-0  31454-3 0  3266
2 16536  53.0547 341.9221 0015889 169.3508 302.0187 15.75053564    18
STARLINK-1668_old
1 26536C 20070E   21325.17151042  .00046437  00000-0  30295-3 0  3256
2 26536  53.0545 346.7260 0016067 166.5630 233.0900 15.74947920    19
